STARLINK-35669          
1 66396U 25257S   26068.67371446  .00016053  00000+0  55291-3 0  9990
2 66396  53.1608 216.9084 0000992  84.2037 275.9077 15.30201833 19732
KUIPER-00175            
1 67135U 25301C   26068.97960463  .00019968  00000+0  66732-3 0  9998
2 67135  51.8781  63.6978 0002279  50.5695 309.5490 15.30996371 13854
